{"type": "FeatureCollection", "features": [ {"type": "Feature", "properties": {"norad_id": 42741, "name": "EUTELSAT 172B", "group": "eutelsat", "lat": 0.00405218708445486, "lon": 101.68493383569445, "alt_km": 35785.95339920887, "timestamp": "2025-12-26T12:57:38.938631+00:00", "meta": {"OBJECT_NAME": "EUTELSAT 172B", "OBJECT_ID": "2017-029B", "EPOCH": "2025-12-26T05:07:26.649696", "MEAN_MOTION": 1.00270973, "ECCENTRICITY": 1.341e-05, "INCLINATION": 0.0365, "RA_OF_ASC_NODE": 154.2111, "ARG_OF_PERICENTER": 0.1125, "MEAN_ANOMALY": 189.4975, "EPHEMERIS_TYPE": 0, "CLASSIFICATION_TYPE": "U", "NORAD_CAT_ID": 42741, "ELEMENT_SET_NO": 999, "REV_AT_EPOCH": 3199, "BSTAR": 0, "MEAN_MOTION_DOT": 1.6e-07, "MEAN_MOTION_DDOT": 0}, "tle": {"line1": "1 42741U 17029B   25360.21350289  .00000016  00000+0  00000+0 0  9998", "line2": "2 42741   0.0365 154.2111 0000134   0.1125 189.4975  1.00270973 31990"}}, "geometry": {"type": "Point", "coordinates": [101.68493383569445, 0.00405218708445486]}}, {"type": "Feature", "properties": {"norad_id": 44334, "name": "EUTELSAT 7C", "group": "eutelsat", "lat": 0.043711870444117756, "lon": -63.31808803840549, "alt_km": 35775.784637132696, "timestamp": "2025-12-26T12:57:38.938642+00:00", "meta": {"OBJECT_NAME": "EUTELSAT 7C", "OBJECT_ID": "2019-034B", "EPOCH": "2025-12-24T14:50:38.546016", "MEAN_MOTION": 1.00270796, "ECCENTRICITY": 0.00031593, "INCLINATION": 0.0726, "RA_OF_ASC_NODE": 177.7928, "ARG_OF_PERICENTER": 79.9691, "MEAN_ANOMALY": 65.2631, "EPHEMERIS_TYPE": 0, "CLASSIFICATION_TYPE": "U", "NORAD_CAT_ID": 44334, "ELEMENT_SET_NO": 999, "REV_AT_EPOCH": 508, "BSTAR": 0, "MEAN_MOTION_DOT": 6.9e-07, "MEAN_MOTION_DDOT": 0}, "tle": {"line1": "1 44334U 19034B   25358.61850169  .00000069  00000+0  00000+0 0  9997", "line2": "2 44334   0.0726 177.7928 0003159  79.9691  65.2631  1.00270796  5083"}}, "geometry": {"type": "Point", "coordinates": [-63.31808803840549, 0.043711870444117756]}}, {"type": "Feature", "properties": {"norad_id": 44624, "name": "EUTELSAT 5 WEST B", "group": "eutelsat", "lat": -0.07246324062948131, "lon": -75.30401522110351, "alt_km": 35772.95757624584, "timestamp": "2025-12-26T12:57:38.938654+00:00", "meta": {"OBJECT_NAME": "EUTELSAT 5 WEST B", "OBJECT_ID": "2019-067A", "EPOCH": "2025-12-25T22:47:38.488128", "MEAN_MOTION": 1.0027127, "ECCENTRICITY": 0.00031947, "INCLINATION": 0.0622, "RA_OF_ASC_NODE": 345.9649, "ARG_OF_PERICENTER": 287.5339, "MEAN_ANOMALY": 158.1146, "EPHEMERIS_TYPE": 0, "CLASSIFICATION_TYPE": "U", "NORAD_CAT_ID": 44624, "ELEMENT_SET_NO": 999, "REV_AT_EPOCH": 2270, "BSTAR": 0, "MEAN_MOTION_DOT": -2.1e-07, "MEAN_MOTION_DDOT": 0}, "tle": {"line1": "1 44624U 19067A   25359.94975102 -.00000021  00000+0  00000+0 0  9996", "line2": "2 44624   0.0622 345.9649 0003194 287.5339 158.1146  1.00271270 22703"}}, "geometry": {"type": "Point", "coordinates": [-75.30401522110351, -0.07246324062948131]}}, {"type": "Feature", "properties": {"norad_id": 45027, "name": "EUTELSAT KONNECT", "group": "eutelsat", "lat": -0.04519574732864292, "lon": -63.13522184082638, "alt_km": 35780.61317283248, "timestamp": "2025-12-26T12:57:38.938666+00:00", "meta": {"OBJECT_NAME": "EUTELSAT KONNECT", "OBJECT_ID": "2020-005B", "EPOCH": "2025-12-24T23:24:19.351008", "MEAN_MOTION": 1.00267204, "ECCENTRICITY": 0.0001571, "INCLINATION": 0.069, "RA_OF_ASC_NODE": 93.7711, "ARG_OF_PERICENTER": 204.5991, "MEAN_ANOMALY": 153.6522, "EPHEMERIS_TYPE": 0, "CLASSIFICATION_TYPE": "U", "NORAD_CAT_ID": 45027, "ELEMENT_SET_NO": 999, "REV_AT_EPOCH": 2259, "BSTAR": 0, "MEAN_MOTION_DOT": 7e-07, "MEAN_MOTION_DDOT": 0}, "tle": {"line1": "1 45027U 20005B   25358.97522397  .00000070  00000+0  00000+0 0  9997", "line2": "2 45027   0.0690  93.7711 0001571 204.5991 153.6522  1.00267204 22591"}}, "geometry": {"type": "Point", "coordinates": [-63.13522184082638, -0.04519574732864292]}}, {"type": "Feature", "properties": {"norad_id": 49056, "name": "EUTELSAT QUANTUM", "group": "eutelsat", "lat": -0.021761187596329196, "lon": -22.57891782472487, "alt_km": 35777.199421522215, "timestamp": "2025-12-26T12:57:38.938682+00:00", "meta": {"OBJECT_NAME": "EUTELSAT QUANTUM", "OBJECT_ID": "2021-069B", "EPOCH": "2025-12-26T04:01:38.790048", "MEAN_MOTION": 1.00271273, "ECCENTRICITY": 0.00035941, "INCLINATION": 0.0134, "RA_OF_ASC_NODE": 25.5084, "ARG_OF_PERICENTER": 258.1659, "MEAN_ANOMALY": 279.3536, "EPHEMERIS_TYPE": 0, "CLASSIFICATION_TYPE": "U", "NORAD_CAT_ID": 49056, "ELEMENT_SET_NO": 999, "REV_AT_EPOCH": 1619, "BSTAR": 0, "MEAN_MOTION_DOT": 1.48e-06, "MEAN_MOTION_DDOT": 0}, "tle": {"line1": "1 49056U 21069B   25360.16781007  .00000148  00000+0  00000+0 0  9999", "line2": "2 49056   0.0134  25.5084 0003594 258.1659 279.3536  1.00271273 16190"}}, "geometry": {"type": "Point", "coordinates": [-22.57891782472487, -0.021761187596329196]}}, {"type": "Feature", "properties": {"norad_id": 53765, "name": "EUTELSAT KONNECT VHTS", "group": "eutelsat", "lat": -0.03306305702043942, "lon": -67.59608504536152, "alt_km": 35779.41195253663, "timestamp": "2025-12-26T12:57:38.938694+00:00", "meta": {"OBJECT_NAME": "EUTELSAT KONNECT VHTS", "OBJECT_ID": "2022-110A", "EPOCH": "2025-12-25T13:04:49.589760", "MEAN_MOTION": 1.00267512, "ECCENTRICITY": 0.0002526, "INCLINATION": 0.0614, "RA_OF_ASC_NODE": 98.0209, "ARG_OF_PERICENTER": 151.222, "MEAN_ANOMALY": 43.9766, "EPHEMERIS_TYPE": 0, "CLASSIFICATION_TYPE": "U", "NORAD_CAT_ID": 53765, "ELEMENT_SET_NO": 999, "REV_AT_EPOCH": 508, "BSTAR": 0, "MEAN_MOTION_DOT": 3.8e-07, "MEAN_MOTION_DDOT": 0}, "tle": {"line1": "1 53765U 22110A   25359.54501840  .00000038  00000+0  00000+0 0  9992", "line2": "2 53765   0.0614  98.0209 0002526 151.2220  43.9766  1.00267512  5087"}}, "geometry": {"type": "Point", "coordinates": [-67.59608504536152, -0.03306305702043942]}}, {"type": "Feature", "properties": {"norad_id": 54048, "name": "EUTELSAT HOTBIRD 13F", "group": "eutelsat", "lat": -0.0047519693466722785, "lon": -57.342264420166494, "alt_km": 35781.370372227204, "timestamp": "2025-12-26T12:57:38.938706+00:00", "meta": {"OBJECT_NAME": "EUTELSAT HOTBIRD 13F", "OBJECT_ID": "2022-134A", "EPOCH": "2025-12-24T23:25:56.697024", "MEAN_MOTION": 1.00270775, "ECCENTRICITY": 0.0002211, "INCLINATION": 0.0545, "RA_OF_ASC_NODE": 289.4002, "ARG_OF_PERICENTER": 71.817, "MEAN_ANOMALY": 97.0057, "EPHEMERIS_TYPE": 0, "CLASSIFICATION_TYPE": "U", "NORAD_CAT_ID": 54048, "ELEMENT_SET_NO": 999, "REV_AT_EPOCH": 1163, "BSTAR": 0, "MEAN_MOTION_DOT": 1.08e-06, "MEAN_MOTION_DDOT": 0}, "tle": {"line1": "1 54048U 22134A   25358.97635066  .00000108  00000+0  00000+0 0  9995", "line2": "2 54048   0.0545 289.4002 0002211  71.8170  97.0057  1.00270775 11630"}}, "geometry": {"type": "Point", "coordinates": [-57.342264420166494, -0.0047519693466722785]}}, {"type": "Feature", "properties": {"norad_id": 54225, "name": "EUTELSAT HOTBIRD 13G", "group": "eutelsat", "lat": 0.022297956644582676, "lon": -57.32265039005865, "alt_km": 35791.04319091875, "timestamp": "2025-12-26T12:57:38.938717+00:00", "meta": {"OBJECT_NAME": "EUTELSAT HOTBIRD 13G", "OBJECT_ID": "2022-146A", "EPOCH": "2025-12-24T00:28:38.654112", "MEAN_MOTION": 1.00268836, "ECCENTRICITY": 0.00017131, "INCLINATION": 0.0535, "RA_OF_ASC_NODE": 227.8066, "ARG_OF_PERICENTER": 307.349, "MEAN_ANOMALY": 297.8001, "EPHEMERIS_TYPE": 0, "CLASSIFICATION_TYPE": "U", "NORAD_CAT_ID": 54225, "ELEMENT_SET_NO": 999, "REV_AT_EPOCH": 571, "BSTAR": 0, "MEAN_MOTION_DOT": 1.08e-06, "MEAN_MOTION_DDOT": 0}, "tle": {"line1": "1 54225U 22146A   25358.01989183  .00000108  00000+0  00000+0 0  9992", "line2": "2 54225   0.0535 227.8066 0001713 307.3490 297.8001  1.00268836  5716"}}, "geometry": {"type": "Point", "coordinates": [-57.32265039005865, 0.022297956644582676]}}, {"type": "Feature", "properties": {"norad_id": 54259, "name": "EUTELSAT 10B", "group": "eutelsat", "lat": -0.041992915516153265, "lon": -60.2885947358225, "alt_km": 35788.72846372754, "timestamp": "2025-12-26T12:57:38.938729+00:00", "meta": {"OBJECT_NAME": "EUTELSAT 10B", "OBJECT_ID": "2022-157A", "EPOCH": "2025-12-25T22:01:38.544672", "MEAN_MOTION": 1.00270219, "ECCENTRICITY": 6.649e-05, "INCLINATION": 0.0617, "RA_OF_ASC_NODE": 95.4372, "ARG_OF_PERICENTER": 60.6723, "MEAN_ANOMALY": 278.9927, "EPHEMERIS_TYPE": 0, "CLASSIFICATION_TYPE": "U", "NORAD_CAT_ID": 54259, "ELEMENT_SET_NO": 999, "REV_AT_EPOCH": 1128, "BSTAR": 0, "MEAN_MOTION_DOT": 9e-07, "MEAN_MOTION_DDOT": 0}, "tle": {"line1": "1 54259U 22157A   25359.91780723  .00000090  00000+0  00000+0 0  9990", "line2": "2 54259   0.0617  95.4372 0000664  60.6723 278.9927  1.00270219 11289"}}, "geometry": {"type": "Point", "coordinates": [-60.2885947358225, -0.041992915516153265]}}, {"type": "Feature", "properties": {"norad_id": 59346, "name": "EUTELSAT 36D", "group": "eutelsat", "lat": -0.03178922685157133, "lon": -34.4489590449127, "alt_km": 35788.73962688357, "timestamp": "2025-12-26T12:57:38.938740+00:00", "meta": {"OBJECT_NAME": "EUTELSAT 36D", "OBJECT_ID": "2024-059A", "EPOCH": "2025-12-26T02:56:01.083264", "MEAN_MOTION": 1.00263096, "ECCENTRICITY": 4.929e-05, "INCLINATION": 0.0182, "RA_OF_ASC_NODE": 36.9532, "ARG_OF_PERICENTER": 25.8871, "MEAN_ANOMALY": 111.9168, "EPHEMERIS_TYPE": 0, "CLASSIFICATION_TYPE": "U", "NORAD_CAT_ID": 59346, "ELEMENT_SET_NO": 999, "REV_AT_EPOCH": 641, "BSTAR": 0, "MEAN_MOTION_DOT": 1.77e-06, "MEAN_MOTION_DDOT": 0}, "tle": {"line1": "1 59346U 24059A   25360.12223476  .00000177  00000+0  00000+0 0  9993", "line2": "2 59346   0.0182  36.9532 0000492  25.8871 111.9168  1.00263096  6419"}}, "geometry": {"type": "Point", "coordinates": [-34.4489590449127, -0.03178922685157133]}}]}